IRIDIUM 171             
1 43929U 19002H   24287.64026099  .00001182  00000+0  41495-3 0  9995
2 43929  86.3953 249.3312 0002429  81.1599 278.9872 14.34215471301309
IRIDIUM 170             
1 43930U 19002J   24287.86362467  .00002955  00000+0  46463-3 0  9992
2 43930  86.6067 249.0358 0002322  83.2073 276.9408 14.72251286309317
IRIDIUM 167             
1 43931U 19002K   24287.91299150  .00000427  00000+0  14555-3 0  9996
2 43931  86.3945 248.9954 0002596  85.9600 274.1892 14.34211947301348
IRIDIUM 181             
1 56726U 23068S   24287.77706835  .00000557  00000+0  15888-3 0  9990
2 56726  86.8593 308.5863 0002701  88.3201 271.8310 14.43562583 74242
IRIDIUM 177             
1 56727U 23068T   24287.46043375  .00004100  00000+0  53580-3 0  9999
2 56727  86.1931 259.1771 0002769 102.1471 258.0060 14.80249118 75875
IRIDIUM 174             
1 56728U 23068U   24287.38754982  .00001403  00000+0  18078-3 0  9990
2 56728  86.1941 259.3244 0002639  95.4085 264.7437 14.80304510 75864
IRIDIUM 178             
1 56729U 23068V   24287.92279349  .00001616  00000+0  20920-3 0  9995
2 56729  86.5718 282.1747 0002544  89.2749 270.8764 14.80241685 75949
